GLOBALSTAR M094         
1 39074U 13005C   25012.26343544 -.00000090  00000+0  77963-4 0  9998
2 39074  51.9970 296.8607 0000533  33.6307 326.4593 12.62266822552682
GLOBALSTAR M096         
1 39075U 13005D   25012.43502460 -.00000097  00000+0  40551-4 0  9992
2 39075  52.0096 344.7299 0000151 358.1656   1.9210 12.62266564551629
GLOBALSTAR M078         
1 39076U 13005E   25012.48720783 -.00000038  00000+0  36978-3 0  9990
2 39076  51.9884  69.2882 0001184 171.4653 188.6234 12.62267530550464
GLOBALSTAR M095         
1 39077U 13005F   25012.51400535 -.00000083  00000+0  11768-3 0  9995
2 39077  51.9808  66.4834 0000664 184.2615 175.8246 12.62265279550479
GLOBALSTAR M087         
1 52888U 22064A   25012.52330082 -.00000089  00000+0  89994-4 0  9998
2 52888  51.9759 208.2840 0010944 254.6231 105.3434 12.80131238125371
